{"type":"FeatureCollection","features":[{"type":"Feature","properties":{"name":"Graafwater"},"geometry":{"type":"Point","coordinates":[18.60647,-32.15174]}},{"type":"Feature","properties":{"name":"Villiersdorp"},"geometry":{"type":"Point","coordinates":[19.28734,-33.99243]}},{"type":"Feature","properties":{"name":"Bredasdorp"},"geometry":{"type":"Point","coordinates":[20.04727,-34.53644]}},{"type":"Feature","properties":{"name":"Caledon"},"geometry":{"type":"Point","coordinates":[19.42919,-34.23493]}},{"type":"Feature","properties":{"name":"Gans Bay"},"geometry":{"type":"Point","coordinates":[19.35139,-34.57818]}},{"type":"Feature","properties":{"name":"Rondebosch"},"geometry":{"type":"Point","coordinates":[18.46833,-33.96262]}},{"type":"Feature","properties":{"name":"Muizenberg"},"geometry":{"type":"Point","coordinates":[18.46663,-34.10872]}},{"type":"Feature","properties":{"name":"Robertson"},"geometry":{"type":"Point","coordinates":[19.87543,-33.80517]}},{"type":"Feature","properties":{"name":"Lwandle"},"geometry":{"type":"Point","coordinates":[18.86718,-34.11561]}},{"type":"Feature","properties":{"name":"Samora Machel"},"geometry":{"type":"Point","coordinates":[18.57275,-34.01742]}},{"type":"Feature","properties":{"name":"Paarl East"},"geometry":{"type":"Point","coordinates":[18.99406,-33.71148]}},{"type":"Feature","properties":{"name":"Philippi"},"geometry":{"type":"Point","coordinates":[18.54054,-34.00107]}},{"type":"Feature","properties":{"name":"Langebaan"},"geometry":{"type":"Point","coordinates":[18.03349,-33.09287]}},{"type":"Feature","properties":{"name":"Moorreesburg"},"geometry":{"type":"Point","coordinates":[18.66466,-33.15359]}},{"type":"Feature","properties":{"name":"Piketberg"},"geometry":{"type":"Point","coordinates":[18.75449,-32.90627]}},{"type":"Feature","properties":{"name":"Redelinghuys"},"geometry":{"type":"Point","coordinates":[18.53737,-32.47741]}},{"type":"Feature","properties":{"name":"St Helena Bay"},"geometry":{"type":"Point","coordinates":[18.02407,-32.75816]}},{"type":"Feature","properties":{"name":"Vredenburg"},"geometry":{"type":"Point","coordinates":[18.00228,-32.90673]}},{"type":"Feature","properties":{"name":"Citrusdal"},"geometry":{"type":"Point","coordinates":[19.01101,-32.58829]}},{"type":"Feature","properties":{"name":"Clanwilliam"},"geometry":{"type":"Point","coordinates":[18.89226,-32.17615]}},{"type":"Feature","properties":{"name":"Doring Bay"},"geometry":{"type":"Point","coordinates":[18.23678,-31.81174]}},{"type":"Feature","properties":{"name":"Swellendam"},"geometry":{"type":"Point","coordinates":[20.44455,-34.02047]}},{"type":"Feature","properties":{"name":"Mfuleni"},"geometry":{"type":"Point","coordinates":[18.68742,-33.98106]}},{"type":"Feature","properties":{"name":"Riebeek West"},"geometry":{"type":"Point","coordinates":[18.8727,-33.35093]}},{"type":"Feature","properties":{"name":"Wellington"},"geometry":{"type":"Point","coordinates":[19.00515,-33.64022]}},{"type":"Feature","properties":{"name":"Tulbagh"},"geometry":{"type":"Point","coordinates":[19.14052,-33.28503]}},{"type":"Feature","properties":{"name":"Harare"},"geometry":{"type":"Point","coordinates":[18.6693,-34.05193]}},{"type":"Feature","properties":{"name":"Kleinvlei"},"geometry":{"type":"Point","coordinates":[18.71879,-33.9882]}},{"type":"Feature","properties":{"name":"Grabouw"},"geometry":{"type":"Point","coordinates":[19.01901,-34.15381]}},{"type":"Feature","properties":{"name":"Hermanus"},"geometry":{"type":"Point","coordinates":[19.23623,-34.41859]}},{"type":"Feature","properties":{"name":"Kleinmond"},"geometry":{"type":"Point","coordinates":[19.03232,-34.33963]}},{"type":"Feature","properties":{"name":"Napier"},"geometry":{"type":"Point","coordinates":[19.89561,-34.4756]}},{"type":"Feature","properties":{"name":"Strand"},"geometry":{"type":"Point","coordinates":[18.83286,-34.11592]}},{"type":"Feature","properties":{"name":"Lingelethu-West"},"geometry":{"type":"Point","coordinates":[18.66004,-34.04298]}},{"type":"Feature","properties":{"name":"Groot Brakrivier"},"geometry":{"type":"Point","coordinates":[18.97776,-33.86616]}},{"type":"Feature","properties":{"name":"Mowbray"},"geometry":{"type":"Point","coordinates":[18.47228,-33.95012]}},{"type":"Feature","properties":{"name":"Hout Bay"},"geometry":{"type":"Point","coordinates":[18.35674,-34.03052]}},{"type":"Feature","properties":{"name":"Montagu"},"geometry":{"type":"Point","coordinates":[20.12967,-33.7846]}},{"type":"Feature","properties":{"name":"Dieprivier"},"geometry":{"type":"Point","coordinates":[18.46485,-34.03161]}},{"type":"Feature","properties":{"name":"Claremont"},"geometry":{"type":"Point","coordinates":[18.47286,-33.98442]}},{"type":"Feature","properties":{"name":"Saron"},"geometry":{"type":"Point","coordinates":[18.99944,-33.18409]}},{"type":"Feature","properties":{"name":"Malmesbury"},"geometry":{"type":"Point","coordinates":[18.72971,-33.45354]}},{"type":"Feature","properties":{"name":"Porterville"},"geometry":{"type":"Point","coordinates":[18.99274,-33.01164]}},{"type":"Feature","properties":{"name":"Saldanha"},"geometry":{"type":"Point","coordinates":[17.93958,-33.00962]}},{"type":"Feature","properties":{"name":"Khayelitsha"},"geometry":{"type":"Point","coordinates":[18.66599,-34.02464]}},{"type":"Feature","properties":{"name":"Woodstock"},"geometry":{"type":"Point","coordinates":[18.44814,-33.92897]}},{"type":"Feature","properties":{"name":"Riviersonderend"},"geometry":{"type":"Point","coordinates":[19.92037,-34.15086]}},{"type":"Feature","properties":{"name":"Somerset West"},"geometry":{"type":"Point","coordinates":[18.84466,-34.07682]}},{"type":"Feature","properties":{"name":"Struisbaai"},"geometry":{"type":"Point","coordinates":[20.05088,-34.80059]}},{"type":"Feature","properties":{"name":"Cloetesville"},"geometry":{"type":"Point","coordinates":[18.85526,-33.92257]}},{"type":"Feature","properties":{"name":"Oudtshoorn"},"geometry":{"type":"Point","coordinates":[22.20401,-33.58986]}},{"type":"Feature","properties":{"name":"Uniondale"},"geometry":{"type":"Point","coordinates":[23.12582,-33.6573]}},{"type":"Feature","properties":{"name":"Ladismith"},"geometry":{"type":"Point","coordinates":[21.2683,-33.49487]}},{"type":"Feature","properties":{"name":"Still Bay"},"geometry":{"type":"Point","coordinates":[21.41184,-34.37743]}},{"type":"Feature","properties":{"name":"Laingsburg"},"geometry":{"type":"Point","coordinates":[20.85937,-33.19758]}},{"type":"Feature","properties":{"name":"Murraysburg"},"geometry":{"type":"Point","coordinates":[23.76155,-31.96489]}},{"type":"Feature","properties":{"name":"Cape Town Central"},"geometry":{"type":"Point","coordinates":[18.4231,-33.92774]}},{"type":"Feature","properties":{"name":"Camps Bay"},"geometry":{"type":"Point","coordinates":[18.37672,-33.95604]}},{"type":"Feature","properties":{"name":"Maitland"},"geometry":{"type":"Point","coordinates":[18.48325,-33.92367]}},{"type":"Feature","properties":{"name":"Milnerton"},"geometry":{"type":"Point","coordinates":[18.50175,-33.87562]}},{"type":"Feature","properties":{"name":"Pinelands"},"geometry":{"type":"Point","coordinates":[18.50137,-33.92691]}},{"type":"Feature","properties":{"name":"Kensington"},"geometry":{"type":"Point","coordinates":[18.51064,-33.90953]}},{"type":"Feature","properties":{"name":"Delft"},"geometry":{"type":"Point","coordinates":[18.64209,-33.97502]}},{"type":"Feature","properties":{"name":"Bellville"},"geometry":{"type":"Point","coordinates":[18.6221,-33.90206]}},{"type":"Feature","properties":{"name":"Simon's Town"},"geometry":{"type":"Point","coordinates":[18.43659,-34.19313]}},{"type":"Feature","properties":{"name":"Kuilsrivier"},"geometry":{"type":"Point","coordinates":[18.6825,-33.93231]}},{"type":"Feature","properties":{"name":"Touws River"},"geometry":{"type":"Point","coordinates":[20.03179,-33.33927]}},{"type":"Feature","properties":{"name":"Suurbraak"},"geometry":{"type":"Point","coordinates":[20.654,-34.0046]}},{"type":"Feature","properties":{"name":"Rawsonville"},"geometry":{"type":"Point","coordinates":[19.30908,-33.68464]}},{"type":"Feature","properties":{"name":"Da Gamaskop"},"geometry":{"type":"Point","coordinates":[22.11733,-34.17631]}},{"type":"Feature","properties":{"name":"Leeu Gamka"},"geometry":{"type":"Point","coordinates":[21.97303,-32.77896]}},{"type":"Feature","properties":{"name":"Thembalethu"},"geometry":{"type":"Point","coordinates":[22.48547,-34.00341]}},{"type":"Feature","properties":{"name":"Kwanonqaba"},"geometry":{"type":"Point","coordinates":[22.09112,-34.17612]}},{"type":"Feature","properties":{"name":"Kwanokuthula"},"geometry":{"type":"Point","coordinates":[23.32062,-34.05359]}},{"type":"Feature","properties":{"name":"Conville"},"geometry":{"type":"Point","coordinates":[22.47327,-33.98272]}},{"type":"Feature","properties":{"name":"Klawer"},"geometry":{"type":"Point","coordinates":[18.62512,-31.77222]}},{"type":"Feature","properties":{"name":"Lambertsbaai"},"geometry":{"type":"Point","coordinates":[18.30541,-32.09251]}},{"type":"Feature","properties":{"name":"Sea Point"},"geometry":{"type":"Point","coordinates":[18.39946,-33.90553]}},{"type":"Feature","properties":{"name":"Nuwerus"},"geometry":{"type":"Point","coordinates":[18.35712,-31.14968]}},{"type":"Feature","properties":{"name":"Vanrhynsdorp"},"geometry":{"type":"Point","coordinates":[18.74001,-31.6083]}},{"type":"Feature","properties":{"name":"Belhar"},"geometry":{"type":"Point","coordinates":[18.64877,-33.94692]}},{"type":"Feature","properties":{"name":"Prince Alfred Hamlet"},"geometry":{"type":"Point","coordinates":[19.32863,-33.29353]}},{"type":"Feature","properties":{"name":"De Doorns"},"geometry":{"type":"Point","coordinates":[19.66581,-33.47424]}},{"type":"Feature","properties":{"name":"Klapmuts"},"geometry":{"type":"Point","coordinates":[18.86272,-33.80679]}},{"type":"Feature","properties":{"name":"Parow"},"geometry":{"type":"Point","coordinates":[18.59561,-33.90469]}},{"type":"Feature","properties":{"name":"Barrydale"},"geometry":{"type":"Point","coordinates":[20.72117,-33.90276]}},{"type":"Feature","properties":{"name":"Ashton"},"geometry":{"type":"Point","coordinates":[20.06699,-33.83361]}},{"type":"Feature","properties":{"name":"Steenberg"},"geometry":{"type":"Point","coordinates":[18.47621,-34.06542]}},{"type":"Feature","properties":{"name":"Philippi East"},"geometry":{"type":"Point","coordinates":[18.60685,-34.01031]}},{"type":"Feature","properties":{"name":"Fish Hoek"},"geometry":{"type":"Point","coordinates":[18.43492,-34.13289]}},{"type":"Feature","properties":{"name":"Vredendal"},"geometry":{"type":"Point","coordinates":[18.51031,-31.66088]}},{"type":"Feature","properties":{"name":"Elsies River"},"geometry":{"type":"Point","coordinates":[18.56443,-33.92441]}},{"type":"Feature","properties":{"name":"Lutzville"},"geometry":{"type":"Point","coordinates":[18.34501,-31.55902]}},{"type":"Feature","properties":{"name":"Ceres"},"geometry":{"type":"Point","coordinates":[19.31159,-33.36941]}},{"type":"Feature","properties":{"name":"Bonnievale"},"geometry":{"type":"Point","coordinates":[20.09825,-33.93905]}},{"type":"Feature","properties":{"name":"Goodwood"},"geometry":{"type":"Point","coordinates":[18.56195,-33.90888]}},{"type":"Feature","properties":{"name":"Kraaifontein"},"geometry":{"type":"Point","coordinates":[18.7273,-33.857]}},{"type":"Feature","properties":{"name":"Gugulethu"},"geometry":{"type":"Point","coordinates":[18.56331,-33.97497]}},{"type":"Feature","properties":{"name":"Manenberg"},"geometry":{"type":"Point","coordinates":[18.55608,-33.97186]}},{"type":"Feature","properties":{"name":"Mitchells Plain"},"geometry":{"type":"Point","coordinates":[18.62321,-34.04761]}},{"type":"Feature","properties":{"name":"Calitzdorp"},"geometry":{"type":"Point","coordinates":[21.68666,-33.53339]}},{"type":"Feature","properties":{"name":"Athlone"},"geometry":{"type":"Point","coordinates":[18.50724,-33.96157]}},{"type":"Feature","properties":{"name":"Bishop Lavis"},"geometry":{"type":"Point","coordinates":[18.57224,-33.94634]}},{"type":"Feature","properties":{"name":"De Rust"},"geometry":{"type":"Point","coordinates":[22.53451,-33.48874]}},{"type":"Feature","properties":{"name":"George"},"geometry":{"type":"Point","coordinates":[22.46031,-33.95658]}},{"type":"Feature","properties":{"name":"Knysna"},"geometry":{"type":"Point","coordinates":[23.05145,-34.03629]}},{"type":"Feature","properties":{"name":"Mossel Bay"},"geometry":{"type":"Point","coordinates":[22.14066,-34.18145]}},{"type":"Feature","properties":{"name":"Albertinia"},"geometry":{"type":"Point","coordinates":[21.58325,-34.2086]}},{"type":"Feature","properties":{"name":"Groot-Drakenstein"},"geometry":{"type":"Point","coordinates":[22.21906,-34.05469]}},{"type":"Feature","properties":{"name":"Riversdale"},"geometry":{"type":"Point","coordinates":[21.26123,-34.09338]}},{"type":"Feature","properties":{"name":"Beaufort West"},"geometry":{"type":"Point","coordinates":[22.58486,-32.34946]}},{"type":"Feature","properties":{"name":"Laaiplek"},"geometry":{"type":"Point","coordinates":[18.15646,-32.77115]}},{"type":"Feature","properties":{"name":"Bothasig"},"geometry":{"type":"Point","coordinates":[18.54346,-33.85506]}},{"type":"Feature","properties":{"name":"Prince Albert"},"geometry":{"type":"Point","coordinates":[22.02828,-33.21944]}},{"type":"Feature","properties":{"name":"Wolseley"},"geometry":{"type":"Point","coordinates":[19.20104,-33.4144]}},{"type":"Feature","properties":{"name":"Ravensmead"},"geometry":{"type":"Point","coordinates":[18.5973,-33.92226]}},{"type":"Feature","properties":{"name":"Lentegeur"},"geometry":{"type":"Point","coordinates":[18.6107,-34.03613]}},{"type":"Feature","properties":{"name":"Franschhoek"},"geometry":{"type":"Point","coordinates":[19.12143,-33.9122]}},{"type":"Feature","properties":{"name":"Hopefield"},"geometry":{"type":"Point","coordinates":[18.34998,-33.06525]}},{"type":"Feature","properties":{"name":"Brackenfell"},"geometry":{"type":"Point","coordinates":[18.68164,-33.87196]}},{"type":"Feature","properties":{"name":"Stellenbosch"},"geometry":{"type":"Point","coordinates":[18.85592,-33.93575]}},{"type":"Feature","properties":{"name":"Mcgregor"},"geometry":{"type":"Point","coordinates":[19.82949,-33.9463]}},{"type":"Feature","properties":{"name":"Stanford"},"geometry":{"type":"Point","coordinates":[19.45789,-34.43881]}},{"type":"Feature","properties":{"name":"Table View"},"geometry":{"type":"Point","coordinates":[18.4893,-33.82635]}},{"type":"Feature","properties":{"name":"Mbekweni"},"geometry":{"type":"Point","coordinates":[18.99789,-33.67287]}},{"type":"Feature","properties":{"name":"Heidelberg(C)"},"geometry":{"type":"Point","coordinates":[20.95543,-34.08899]}},{"type":"Feature","properties":{"name":"Plettenberg Bay"},"geometry":{"type":"Point","coordinates":[23.37196,-34.05783]}},{"type":"Feature","properties":{"name":"Pacaltsdorp"},"geometry":{"type":"Point","coordinates":[22.45031,-34.02196]}},{"type":"Feature","properties":{"name":"Langa"},"geometry":{"type":"Point","coordinates":[18.52647,-33.94453]}},{"type":"Feature","properties":{"name":"Lansdowne"},"geometry":{"type":"Point","coordinates":[18.50523,-33.99054]}},{"type":"Feature","properties":{"name":"Philadelphia"},"geometry":{"type":"Point","coordinates":[18.58239,-33.66565]}},{"type":"Feature","properties":{"name":"Elands Bay"},"geometry":{"type":"Point","coordinates":[18.34069,-32.31333]}},{"type":"Feature","properties":{"name":"Worcester"},"geometry":{"type":"Point","coordinates":[19.44373,-33.64546]}},{"type":"Feature","properties":{"name":"Strandfontein"},"geometry":{"type":"Point","coordinates":[18.57684,-34.07212]}},{"type":"Feature","properties":{"name":"Macassar"},"geometry":{"type":"Point","coordinates":[18.76276,-34.06112]}},{"type":"Feature","properties":{"name":"Ocean View"},"geometry":{"type":"Point","coordinates":[18.34645,-34.14435]}},{"type":"Feature","properties":{"name":"Bellville South"},"geometry":{"type":"Point","coordinates":[18.64655,-33.91541]}},{"type":"Feature","properties":{"name":"Durbanville"},"geometry":{"type":"Point","coordinates":[18.64929,-33.83389]}},{"type":"Feature","properties":{"name":"Dysselsdorp"},"geometry":{"type":"Point","coordinates":[22.43322,-33.57277]}},{"type":"Feature","properties":{"name":"Genadendal"},"geometry":{"type":"Point","coordinates":[19.5628,-34.04481]}},{"type":"Feature","properties":{"name":"Gordons Bay"},"geometry":{"type":"Point","coordinates":[18.86941,-34.15908]}},{"type":"Feature","properties":{"name":"Melkbosstrand"},"geometry":{"type":"Point","coordinates":[18.4481,-33.72733]}},{"type":"Feature","properties":{"name":"Atlantis"},"geometry":{"type":"Point","coordinates":[18.49318,-33.56479]}},{"type":"Feature","properties":{"name":"Table Bay Harbour"},"geometry":{"type":"Point","coordinates":[18.42454,-33.91001]}},{"type":"Feature","properties":{"name":"Wynberg"},"geometry":{"type":"Point","coordinates":[18.46505,-34.00399]}},{"type":"Feature","properties":{"name":"Grassy Park"},"geometry":{"type":"Point","coordinates":[18.49523,-34.04863]}},{"type":"Feature","properties":{"name":"Nyanga"},"geometry":{"type":"Point","coordinates":[18.58342,-33.98896]}},{"type":"Feature","properties":{"name":"Paarl"},"geometry":{"type":"Point","coordinates":[18.96916,-33.73854]}},{"type":"Feature","properties":{"name":"Darling"},"geometry":{"type":"Point","coordinates":[18.38199,-33.37637]}},{"type":"Feature","properties":{"name":"Eendekuil"},"geometry":{"type":"Point","coordinates":[18.882,-32.6894]}},{"type":"Feature","properties":{"name":"Kirstenhof"},"geometry":{"type":"Point","coordinates":[18.45524,-34.07219]}}]}